{"fetched_at":"2026-07-07T07:58:10.717Z","source":"https://celestrak.org/NORAD/elements/gp.php?GROUP=oneweb&FORMAT=JSON","constellation":"oneweb","records":[{"OBJECT_NAME":"ONEWEB-0033","OBJECT_ID":"2020-008M","EPOCH":"2026-07-06T14:23:47.287104","CLASSIFICATION_TYPE":"U","MEAN_MOTION":13.10372283,"ECCENTRICITY":0.000211,"INCLINATION":87.8817,"RA_OF_ASC_NODE":32.4086,"ARG_OF_PERICENTER":99.1416,"MEAN_ANOMALY":260.995,"EPHEMERIS_TYPE":0,"NORAD_CAT_ID":45142,"ELEMENT_SET_NO":999,"REV_AT_EPOCH":31075,"BSTAR":-0.0018651,"MEAN_MOTION_DOT":-0.00000638,"MEAN_MOTION_DDOT":0},{"OBJECT_NAME":"ONEWEB-0035","OBJECT_ID":"2020-008N","EPOCH":"2026-07-06T14:53:22.121952","CLASSIFICATION_TYPE":"U","MEAN_MOTION":13.10356219,"ECCENTRICITY":0.0001924,"INCLINATION":87.8821,"RA_OF_ASC_NODE":32.3976,"ARG_OF_PERICENTER":87.6764,"MEAN_ANOMALY":272.4583,"EPHEMERIS_TYPE":0,"NORAD_CAT_ID":45143,"ELEMENT_SET_NO":999,"REV_AT_EPOCH":31048,"BSTAR":-0.0055769,"MEAN_MOTION_DOT":-0.00001933,"MEAN_MOTION_DDOT":0},{"OBJECT_NAME":"ONEWEB-0036","OBJECT_ID":"2020-008P","EPOCH":"2026-07-06T14:21:10.808928","CLASSIFICATION_TYPE":"U","MEAN_MOTION":13.10368419,"ECCENTRICITY":0.0001772,"INCLINATION":87.8832,"RA_OF_ASC_NODE":32.4182,"ARG_OF_PERICENTER":79.7302,"MEAN_ANOMALY":280.4025,"EPHEMERIS_TYPE":0,"NORAD_CAT_ID":45144,"ELEMENT_SET_NO":999,"REV_AT_EPOCH":31090,"BSTAR":-0.0019863,"MEAN_MOTION_DOT":-0.00000681,"MEAN_MOTION_DDOT":0},{"OBJECT_NAME":"ONEWEB-0038","OBJECT_ID":"2020-008Q","EPOCH":"2026-07-06T13:09:28.813824","CLASSIFICATION_TYPE":"U","MEAN_MOTION":13.11415666,"ECCENTRICITY":0.0001325,"INCLINATION":87.8894,"RA_OF_ASC_NODE":17.2242,"ARG_OF_PERICENTER":150.9335,"MEAN_ANOMALY":209.1867,"EPHEMERIS_TYPE":0,"NORAD_CAT_ID":45145,"ELEMENT_SET_NO":999,"REV_AT_EPOCH":31286,"BSTAR":-0.0012626,"MEAN_MOTION_DOT":-0.00000435,"MEAN_MOTION_DDOT":0},{"OBJECT_NAME":"ONEWEB-0039","OBJECT_ID":"2020-008R","EPOCH":"2026-07-06T14:28:41.396160","CLASSIFICATION_TYPE":"U","MEAN_MOTION":13.10372071,"ECCENTRICITY":0.000137,"INCLINATION":87.8813,"RA_OF_ASC_NODE":32.3986,"ARG_OF_PERICENTER":71.0425,"MEAN_ANOMALY":289.0851,"EPHEMERIS_TYPE":0,"NORAD_CAT_ID":45146,"ELEMENT_SET_NO":999,"REV_AT_EPOCH":31070,"BSTAR":-0.00093506,"MEAN_MOTION_DOT":-0.00000314,"MEAN_MOTION_DDOT":0},{"OBJECT_NAME":"ONEWEB-0040","OBJECT_ID":"2020-008S","EPOCH":"2026-07-06T14:18:53.496000","CLASSIFICATION_TYPE":"U","MEAN_MOTION":13.1037124,"ECCENTRICITY":0.0001974,"INCLINATION":87.8816,"RA_OF_ASC_NODE":32.4106,"ARG_OF_PERICENTER":78.0129,"MEAN_ANOMALY":282.122,"EPHEMERIS_TYPE":0,"NORAD_CAT_ID":45147,"ELEMENT_SET_NO":999,"REV_AT_EPOCH":31040,"BSTAR":-0.0018441,"MEAN_MOTION_DOT":-0.00000631,"MEAN_MOTION_DDOT":0},{"OBJECT_NAME":"ONEWEB-0043","OBJECT_ID":"2020-008U","EPOCH":"2026-07-06T14:21:33.300576","CLASSIFICATION_TYPE":"U","MEAN_MOTION":13.10367309,"ECCENTRICITY":0.0001477,"INCLINATION":87.8824,"RA_OF_ASC_NODE":32.3991,"ARG_OF_PERICENTER":72.081,"MEAN_ANOMALY":288.0478,"EPHEMERIS_TYPE":0,"NORAD_CAT_ID":45149,"ELEMENT_SET_NO":999,"REV_AT_EPOCH":31072,"BSTAR":-0.0020857,"MEAN_MOTION_DOT":-0.00000715,"MEAN_MOTION_DDOT":0},{"OBJECT_NAME":"ONEWEB-0044","OBJECT_ID":"2020-008V","EPOCH":"2026-07-06T13:13:00.676992","CLASSIFICATION_TYPE":"U","MEAN_MOTION":13.10376749,"ECCENTRICITY":0.00018,"INCLINATION":87.8828,"RA_OF_ASC_NODE":32.4097,"ARG_OF_PERICENTER":80.4628,"MEAN_ANOMALY":279.6703,"EPHEMERIS_TYPE":0,"NORAD_CAT_ID":45150,"ELEMENT_SET_NO":999,"REV_AT_EPOCH":31101,"BSTAR":0.0014815,"MEAN_MOTION_DOT":0.0000053,"MEAN_MOTION_DDOT":0},{"OBJECT_NAME":"ONEWEB-0045","OBJECT_ID":"2020-008W","EPOCH":"2026-07-06T18:31:33.747168","CLASSIFICATION_TYPE":"U","MEAN_MOTION":13.11415023,"ECCENTRICITY":0.0001701,"INCLINATION":87.8889,"RA_OF_ASC_NODE":17.1612,"ARG_OF_PERICENTER":88.3058,"MEAN_ANOMALY":271.8265,"EPHEMERIS_TYPE":0,"NORAD_CAT_ID":45151,"ELEMENT_SET_NO":999,"REV_AT_EPOCH":31297,"BSTAR":-0.00075421,"MEAN_MOTION_DOT":-0.00000255,"MEAN_MOTION_DDOT":0},{"OBJECT_NAME":"ONEWEB-0047","OBJECT_ID":"2020-008X","EPOCH":"2026-07-06T14:52:56.144064","CLASSIFICATION_TYPE":"U","MEAN_MOTION":13.10374972,"ECCENTRICITY":0.0001809,"INCLINATION":87.8828,"RA_OF_ASC_NODE":32.3952,"ARG_OF_PERICENTER":92.6078,"MEAN_ANOMALY":267.5256,"EPHEMERIS_TYPE":0,"NORAD_CAT_ID":45152,"ELEMENT_SET_NO":999,"REV_AT_EPOCH":31074,"BSTAR":0.00036557,"MEAN_MOTION_DOT":0.0000014,"MEAN_MOTION_DDOT":0},{"OBJECT_NAME":"ONEWEB-0048","OBJECT_ID":"2020-008Y","EPOCH":"2026-07-06T14:45:47.403936","CLASSIFICATION_TYPE":"U","MEAN_MOTION":13.10376334,"ECCENTRICITY":0.0001827,"INCLINATION":87.8821,"RA_OF_ASC_NODE":32.4157,"ARG_OF_PERICENTER":88.438,"MEAN_ANOMALY":271.6957,"EPHEMERIS_TYPE":0,"NORAD_CAT_ID":45153,"ELEMENT_SET_NO":999,"REV_AT_EPOCH":31035,"BSTAR":-0.00088019,"MEAN_MOTION_DOT":-0.00000295,"MEAN_MOTION_DDOT":0},{"OBJECT_NAME":"ONEWEB-0049","OBJECT_ID":"2020-008Z","EPOCH":"2026-07-06T14:50:28.781088","CLASSIFICATION_TYPE":"U","MEAN_MOTION":13.10374474,"ECCENTRICITY":0.0002079,"INCLINATION":87.8818,"RA_OF_ASC_NODE":32.4042,"ARG_OF_PERICENTER":75.5485,"MEAN_ANOMALY":284.5873,"EPHEMERIS_TYPE":0,"NORAD_CAT_ID":45154,"ELEMENT_SET_NO":999,"REV_AT_EPOCH":31057,"BSTAR":0.000081754,"MEAN_MOTION_DOT":4.1e-7,"MEAN_MOTION_DDOT":0},{"OBJECT_NAME":"ONEWEB-0051","OBJECT_ID":"2020-008AA","EPOCH":"2026-07-06T18:29:07.943712","CLASSIFICATION_TYPE":"U","MEAN_MOTION":13.11415312,"ECCENTRICITY":0.0001859,"INCLINATION":87.888,"RA_OF_ASC_NODE":17.1676,"ARG_OF_PERICENTER":89.6257,"MEAN_ANOMALY":270.5084,"EPHEMERIS_TYPE":0,"NORAD_CAT_ID":45155,"ELEMENT_SET_NO":999,"REV_AT_EPOCH":31365,"BSTAR":-0.00039869,"MEAN_MOTION_DOT":-0.00000129,"MEAN_MOTION_DDOT":0},{"OBJECT_NAME":"ONEWEB-0052","OBJECT_ID":"2020-008AB","EPOCH":"2026-07-06T15:20:16.221696","CLASSIFICATION_TYPE":"U","MEAN_MOTION":13.1037352,"ECCENTRICITY":0.0001952,"INCLINATION":87.8821,"RA_OF_ASC_NODE":32.3873,"ARG_OF_PERICENTER":75.7677,"MEAN_ANOMALY":284.3667,"EPHEMERIS_TYPE":0,"NORAD_CAT_ID":45156,"ELEMENT_SET_NO":999,"REV_AT_EPOCH":31048,"BSTAR":0.0019181,"MEAN_MOTION_DOT":0.00000682,"MEAN_MOTION_DDOT":0},{"OBJECT_NAME":"ONEWEB-0053","OBJECT_ID":"2020-008AC","EPOCH":"2026-07-06T14:16:27.359040","CLASSIFICATION_TYPE":"U","MEAN_MOTION":13.10370959,"ECCENTRICITY":0.0001665,"INCLINATION":87.8817,"RA_OF_ASC_NODE":32.4166,"ARG_OF_PERICENTER":70.9347,"MEAN_ANOMALY":289.196,"EPHEMERIS_TYPE":0,"NORAD_CAT_ID":45157,"ELEMENT_SET_NO":999,"REV_AT_EPOCH":31045,"BSTAR":-0.0018676,"MEAN_MOTION_DOT":-0.00000639,"MEAN_MOTION_DDOT":0},{"OBJECT_NAME":"ONEWEB-0054","OBJECT_ID":"2020-008AD","EPOCH":"2026-07-06T15:07:50.919744","CLASSIFICATION_TYPE":"U","MEAN_MOTION":13.10375609,"ECCENTRICITY":0.0001893,"INCLINATION":87.8828,"RA_OF_ASC_NODE":32.3943,"ARG_OF_PERICENTER":83.8289,"MEAN_ANOMALY":276.3054,"EPHEMERIS_TYPE":0,"NORAD_CAT_ID":45158,"ELEMENT_SET_NO":999,"REV_AT_EPOCH":31057,"BSTAR":0.0014965,"MEAN_MOTION_DOT":0.00000535,"MEAN_MOTION_DDOT":0}]}
