ONEWEB-0033             
1 45142U 20008M   26187.59985286 -.00000638  00000+0 -18651-2 0  9993
2 45142  87.8817  32.4086 0002110  99.1416 260.9950 13.10372283310751
ONEWEB-0035             
1 45143U 20008N   26187.62039493 -.00001933  00000+0 -55769-2 0  9998
2 45143  87.8821  32.3976 0001924  87.6764 272.4583 13.10356219310485
ONEWEB-0036             
1 45144U 20008P   26187.59804177 -.00000681  00000+0 -19863-2 0  9998
2 45144  87.8832  32.4182 0001772  79.7302 280.4025 13.10368419310901
ONEWEB-0038             
1 45145U 20008Q   26187.54825016 -.00000435  00000+0 -12626-2 0  9996
2 45145  87.8894  17.2242 0001325 150.9335 209.1867 13.11415666312867
ONEWEB-0039             
1 45146U 20008R   26187.60325690 -.00000314  00000+0 -93506-3 0  9990
2 45146  87.8813  32.3986 0001370  71.0425 289.0851 13.10372071310707
ONEWEB-0040             
1 45147U 20008S   26187.59645250 -.00000631  00000+0 -18441-2 0  9992
2 45147  87.8816  32.4106 0001974  78.0129 282.1220 13.10371240310402
ONEWEB-0043             
1 45149U 20008U   26187.59830209 -.00000715  00000+0 -20857-2 0  9991
2 45149  87.8824  32.3991 0001477  72.0810 288.0478 13.10367309310729
ONEWEB-0044             
1 45150U 20008V   26187.55070228  .00000530  00000+0  14815-2 0  9996
2 45150  87.8828  32.4097 0001800  80.4628 279.6703 13.10376749311011
ONEWEB-0045             
1 45151U 20008W   26187.77191837 -.00000255  00000+0 -75421-3 0  9998
2 45151  87.8889  17.1612 0001701  88.3058 271.8265 13.11415023312979
ONEWEB-0047             
1 45152U 20008X   26187.62009426  .00000140  00000+0  36557-3 0  9993
2 45152  87.8828  32.3952 0001809  92.6078 267.5256 13.10374972310749
ONEWEB-0048             
1 45153U 20008Y   26187.61513199 -.00000295  00000+0 -88019-3 0  9993
2 45153  87.8821  32.4157 0001827  88.4380 271.6957 13.10376334310355
ONEWEB-0049             
1 45154U 20008Z   26187.61838867  .00000041  00000+0  81754-4 0  9993
2 45154  87.8818  32.4042 0002079  75.5485 284.5873 13.10374474310575
ONEWEB-0051             
1 45155U 20008AA  26187.77023083 -.00000129  00000+0 -39869-3 0  9995
2 45155  87.8880  17.1676 0001859  89.6257 270.5084 13.11415312313655
ONEWEB-0052             
1 45156U 20008AB  26187.63907664  .00000682  00000+0  19181-2 0  9993
2 45156  87.8821  32.3873 0001952  75.7677 284.3667 13.10373520310486
ONEWEB-0053             
1 45157U 20008AC  26187.59476110 -.00000639  00000+0 -18676-2 0  9998
2 45157  87.8817  32.4166 0001665  70.9347 289.1960 13.10370959310459
ONEWEB-0054             
1 45158U 20008AD  26187.63045046  .00000535  00000+0  14965-2 0  9994
2 45158  87.8828  32.3943 0001893  83.8289 276.3054 13.10375609310577
